*******************************************************************************
Ephemeris / WWW_USER Tue Mar 11 05:48:53 2025 Pasadena, USA      / Horizons    
*******************************************************************************
Target body name: 768325 (2015 BP519)             {source: JPL#13}
Center body name: Earth (399)                     {source: DE441}
Center-site name: Gemini South Obs., Cerro Pachon
*******************************************************************************
Start time      : A.D. 2018-Sep-07 22:39:00.0000 UT      
Stop  time      : A.D. 2018-Sep-08 10:41:00.0000 UT      
Step-size       : 1 minutes
*******************************************************************************
Target pole/equ : undefined
Target radii    : undefined                                                    
Center geodetic : 289.2634, -30.2406227, 2.71233  {E-lon(deg),Lat(deg),Alt(km)}
Center cylindric: 289.2634,5517.21435,-3194.81213 {E-lon(deg),Dxy(km),Dz(km)}
Center pole/equ : ITRF93                          {East-longitude positive}
Center radii    : 6378.137, 6378.137, 6356.752 km {Equator_a, b, pole_c}       
Target primary  : Sun
Vis. interferer : MOON (R_eq= 1737.400) km        {source: DE441}
Rel. light bend : Sun                             {source: DE441}
Rel. lght bnd GM: 1.3271E+11 km^3/s^2                                          
Small-body perts: Yes                             {source: SB441-N16}
Atmos refraction: NO (AIRLESS)
RA format       : HMS
Time format     : CAL 
Calendar mode   : Mixed Julian/Gregorian
RTS-only print  : NO       
EOP file        : eop.250310.p250606                                           
EOP coverage    : DATA-BASED 1962-JAN-20 TO 2025-MAR-10. PREDICTS-> 2025-JUN-05
Units conversion: 1 au= 149597870.700 km, c= 299792.458 km/s, 1 day= 86400.0 s 
Table cut-offs 1: Elevation (-90.0deg=NO ),Airmass (>38.000=NO), Daylight (YES)
Table cut-offs 2: Solar elongation (  0.0,180.0=NO ),Local Hour Angle( 0.0=NO )
Table cut-offs 3: RA/DEC angular rate (     0.0=NO )                           
*******************************************************************************
Initial IAU76/J2000 heliocentric ecliptic osculating elements (au, days, deg.):
  EPOCH=  2459486.5 ! 2021-Sep-29.00 (TDB)         Residual RMS= .071772       
   EC= .9216453194433936   QR= 35.32438628437644   TP= 2473006.6899544764      
   OM= 135.0347983875217   W=  347.957608556413    IN= 54.13315864151695       
  Equivalent ICRF heliocentric cartesian coordinates (au, au/d):
   X= 1.447262462803667E+01  Y= 4.058013389773870E+01  Z=-2.635496110070412E+01
  VX=-2.666905795807619E-03 VY= 1.989051018714909E-05 VZ= 1.987184001515517E-03
Asteroid physical parameters (km, seconds, rotational period in hours):        
   GM= n.a.                RAD= n.a.               ROTPER= n.a.                
   H= 4.34                 G= .150                 B-V= n.a.                   
                           ALBEDO= n.a.            STYP= n.a.                  
*******************************************************************************
 Date__(UT)__HR:MN     R.A._________(ICRF)_________DEC
******************************************************
$$SOE
 2018-Sep-08 06:51     04 32 02.429429 -32 54 28.62784
 2018-Sep-08 06:52     04 32 02.429518 -32 54 28.66342
 2018-Sep-08 06:53     04 32 02.429606 -32 54 28.69899
 2018-Sep-08 06:54     04 32 02.429694 -32 54 28.73457
 2018-Sep-08 06:55     04 32 02.429783 -32 54 28.77015
 2018-Sep-08 06:56     04 32 02.429871 -32 54 28.80572
 2018-Sep-08 06:57     04 32 02.429958 -32 54 28.84130
 2018-Sep-08 06:58     04 32 02.430046 -32 54 28.87687
 2018-Sep-08 06:59     04 32 02.430133 -32 54 28.91244
 2018-Sep-08 07:00     04 32 02.430220 -32 54 28.94802
 2018-Sep-08 07:01     04 32 02.430307 -32 54 28.98359
 2018-Sep-08 07:02     04 32 02.430394 -32 54 29.01916
 2018-Sep-08 07:03     04 32 02.430480 -32 54 29.05472
 2018-Sep-08 07:04     04 32 02.430567 -32 54 29.09029
 2018-Sep-08 07:05     04 32 02.430653 -32 54 29.12586
 2018-Sep-08 07:06     04 32 02.430739 -32 54 29.16142
 2018-Sep-08 07:07     04 32 02.430824 -32 54 29.19699
 2018-Sep-08 07:08     04 32 02.430910 -32 54 29.23255
 2018-Sep-08 07:09     04 32 02.430995 -32 54 29.26811
 2018-Sep-08 07:10     04 32 02.431080 -32 54 29.30367
 2018-Sep-08 07:11     04 32 02.431165 -32 54 29.33923
 2018-Sep-08 07:12     04 32 02.431250 -32 54 29.37479
 2018-Sep-08 07:13     04 32 02.431334 -32 54 29.41035
 2018-Sep-08 07:14     04 32 02.431419 -32 54 29.44591
 2018-Sep-08 07:15     04 32 02.431503 -32 54 29.48146
 2018-Sep-08 07:16     04 32 02.431587 -32 54 29.51702
 2018-Sep-08 07:17     04 32 02.431671 -32 54 29.55257
 2018-Sep-08 07:18     04 32 02.431754 -32 54 29.58812
 2018-Sep-08 07:19     04 32 02.431837 -32 54 29.62367
 2018-Sep-08 07:20     04 32 02.431921 -32 54 29.65922
 2018-Sep-08 07:21     04 32 02.432004 -32 54 29.69477
 2018-Sep-08 07:22     04 32 02.432086 -32 54 29.73032
 2018-Sep-08 07:23     04 32 02.432169 -32 54 29.76587
 2018-Sep-08 07:24     04 32 02.432251 -32 54 29.80141
 2018-Sep-08 07:25     04 32 02.432334 -32 54 29.83696
 2018-Sep-08 07:26     04 32 02.432416 -32 54 29.87250
 2018-Sep-08 07:27     04 32 02.432497 -32 54 29.90804
 2018-Sep-08 07:28     04 32 02.432579 -32 54 29.94358
 2018-Sep-08 07:29     04 32 02.432661 -32 54 29.97912
 2018-Sep-08 07:30     04 32 02.432742 -32 54 30.01466
 2018-Sep-08 07:31     04 32 02.432823 -32 54 30.05020
 2018-Sep-08 07:32     04 32 02.432904 -32 54 30.08574
 2018-Sep-08 07:33     04 32 02.432985 -32 54 30.12127
 2018-Sep-08 07:34     04 32 02.433065 -32 54 30.15681
 2018-Sep-08 07:35     04 32 02.433146 -32 54 30.19234
 2018-Sep-08 07:36     04 32 02.433226 -32 54 30.22787
 2018-Sep-08 07:37     04 32 02.433306 -32 54 30.26340
 2018-Sep-08 07:38     04 32 02.433386 -32 54 30.29893
 2018-Sep-08 07:39     04 32 02.433465 -32 54 30.33446
 2018-Sep-08 07:40     04 32 02.433545 -32 54 30.36999
 2018-Sep-08 07:41     04 32 02.433624 -32 54 30.40551
 2018-Sep-08 07:42     04 32 02.433703 -32 54 30.44104
 2018-Sep-08 07:43     04 32 02.433782 -32 54 30.47656
 2018-Sep-08 07:44     04 32 02.433861 -32 54 30.51208
 2018-Sep-08 07:45     04 32 02.433940 -32 54 30.54760
 2018-Sep-08 07:46     04 32 02.434018 -32 54 30.58312
 2018-Sep-08 07:47     04 32 02.434096 -32 54 30.61864
 2018-Sep-08 07:48     04 32 02.434174 -32 54 30.65416
 2018-Sep-08 07:49     04 32 02.434252 -32 54 30.68967
 2018-Sep-08 07:50     04 32 02.434330 -32 54 30.72519
 2018-Sep-08 07:51     04 32 02.434408 -32 54 30.76070
 2018-Sep-08 07:52     04 32 02.434485 -32 54 30.79622
 2018-Sep-08 07:53     04 32 02.434562 -32 54 30.83173
 2018-Sep-08 07:54     04 32 02.434640 -32 54 30.86724
 2018-Sep-08 07:55     04 32 02.434717 -32 54 30.90275
 2018-Sep-08 07:56     04 32 02.434793 -32 54 30.93825
 2018-Sep-08 07:57     04 32 02.434870 -32 54 30.97376
 2018-Sep-08 07:58     04 32 02.434946 -32 54 31.00926
 2018-Sep-08 07:59     04 32 02.435023 -32 54 31.04477
 2018-Sep-08 08:00     04 32 02.435099 -32 54 31.08027
 2018-Sep-08 08:01     04 32 02.435175 -32 54 31.11577
 2018-Sep-08 08:02     04 32 02.435251 -32 54 31.15127
 2018-Sep-08 08:03     04 32 02.435326 -32 54 31.18677
 2018-Sep-08 08:04     04 32 02.435402 -32 54 31.22227
 2018-Sep-08 08:05     04 32 02.435477 -32 54 31.25776
 2018-Sep-08 08:06     04 32 02.435552 -32 54 31.29326
 2018-Sep-08 08:07     04 32 02.435627 -32 54 31.32875
 2018-Sep-08 08:08     04 32 02.435702 -32 54 31.36424
 2018-Sep-08 08:09     04 32 02.435777 -32 54 31.39974
 2018-Sep-08 08:10     04 32 02.435851 -32 54 31.43522
 2018-Sep-08 08:11     04 32 02.435926 -32 54 31.47071
 2018-Sep-08 08:12     04 32 02.436000 -32 54 31.50620
 2018-Sep-08 08:13     04 32 02.436074 -32 54 31.54169
 2018-Sep-08 08:14     04 32 02.436148 -32 54 31.57717
 2018-Sep-08 08:15     04 32 02.436222 -32 54 31.61265
 2018-Sep-08 08:16     04 32 02.436296 -32 54 31.64814
 2018-Sep-08 08:17     04 32 02.436369 -32 54 31.68362
 2018-Sep-08 08:18     04 32 02.436443 -32 54 31.71909
 2018-Sep-08 08:19     04 32 02.436516 -32 54 31.75457
 2018-Sep-08 08:20     04 32 02.436589 -32 54 31.79005
 2018-Sep-08 08:21     04 32 02.436662 -32 54 31.82552
 2018-Sep-08 08:22     04 32 02.436735 -32 54 31.86100
 2018-Sep-08 08:23     04 32 02.436808 -32 54 31.89647
 2018-Sep-08 08:24     04 32 02.436880 -32 54 31.93194
 2018-Sep-08 08:25     04 32 02.436952 -32 54 31.96741
 2018-Sep-08 08:26     04 32 02.437025 -32 54 32.00288
 2018-Sep-08 08:27     04 32 02.437097 -32 54 32.03835
 2018-Sep-08 08:28     04 32 02.437169 -32 54 32.07381
 2018-Sep-08 08:29     04 32 02.437241 -32 54 32.10928
 2018-Sep-08 08:30     04 32 02.437312 -32 54 32.14474
 2018-Sep-08 08:31     04 32 02.437384 -32 54 32.18020
 2018-Sep-08 08:32     04 32 02.437455 -32 54 32.21566
 2018-Sep-08 08:33     04 32 02.437527 -32 54 32.25112
 2018-Sep-08 08:34     04 32 02.437598 -32 54 32.28658
 2018-Sep-08 08:35     04 32 02.437669 -32 54 32.32203
 2018-Sep-08 08:36     04 32 02.437740 -32 54 32.35749
 2018-Sep-08 08:37     04 32 02.437811 -32 54 32.39294
 2018-Sep-08 08:38     04 32 02.437881 -32 54 32.42839
 2018-Sep-08 08:39     04 32 02.437952 -32 54 32.46384
 2018-Sep-08 08:40     04 32 02.438022 -32 54 32.49929
 2018-Sep-08 08:41     04 32 02.438093 -32 54 32.53474
 2018-Sep-08 08:42     04 32 02.438163 -32 54 32.57019
 2018-Sep-08 08:43     04 32 02.438233 -32 54 32.60563
 2018-Sep-08 08:44     04 32 02.438303 -32 54 32.64108
 2018-Sep-08 08:45     04 32 02.438373 -32 54 32.67652
 2018-Sep-08 08:46     04 32 02.438442 -32 54 32.71196
 2018-Sep-08 08:47     04 32 02.438512 -32 54 32.74740
 2018-Sep-08 08:48     04 32 02.438581 -32 54 32.78284
 2018-Sep-08 08:49     04 32 02.438651 -32 54 32.81827
 2018-Sep-08 08:50     04 32 02.438720 -32 54 32.85371
 2018-Sep-08 08:51     04 32 02.438789 -32 54 32.88914
 2018-Sep-08 08:52     04 32 02.438858 -32 54 32.92457
 2018-Sep-08 08:53     04 32 02.438927 -32 54 32.96001
